{
  "norad_id": 66389,
  "name": "STARLINK-35694",
  "history": [
    {
      "epoch": "2026-03-28T19:21:40.504320Z",
      "apogee_km": 476.06293086326696,
      "perigee_km": 474.33739763205176,
      "latitude_deg": 1.1648987915316203e-05,
      "longitude_deg": 11.355866457520879,
      "height_km": 475.8955279527478,
      "semi_major_axis_km": 6853.337164247659,
      "eccentricity": 0.00012589,
      "inclination_deg": 53.1563,
      "raan_deg": 127.9965,
      "arg_perigee_deg": 76.4336,
      "mean_anomaly_deg": 283.6805,
      "mean_motion_rev_day": 15.30204992
    },
    {
      "epoch": "2026-03-29T01:37:53.305248Z",
      "apogee_km": 476.3460434216513,
      "perigee_km": 474.0364717988368,
      "latitude_deg": 9.334142952188347e-07,
      "longitude_deg": -84.16758765502559,
      "height_km": 475.9855630699122,
      "semi_major_axis_km": 6853.328257610244,
      "eccentricity": 0.0001685,
      "inclination_deg": 53.1581,
      "raan_deg": 126.7839,
      "arg_perigee_deg": 84.8828,
      "mean_anomaly_deg": 275.2365,
      "mean_motion_rev_day": 15.30207975
    },
    {
      "epoch": "2026-03-30T05:50:50.846784Z",
      "apogee_km": 476.12499506858967,
      "perigee_km": 474.2641784761481,
      "latitude_deg": 9.669845078583012e-06,
      "longitude_deg": -154.02702606757043,
      "height_km": 476.3770667377017,
      "semi_major_axis_km": 6853.331586772369,
      "eccentricity": 0.00013576,
      "inclination_deg": 53.1579,
      "raan_deg": 121.323,
      "arg_perigee_deg": 107.8158,
      "mean_anomaly_deg": 252.2991,
      "mean_motion_rev_day": 15.3020686
    },
    {
      "epoch": "2026-03-30T12:07:03.593280Z",
      "apogee_km": 476.02896861670706,
      "perigee_km": 474.3497665901177,
      "latitude_deg": 2.5198694901629203e-06,
      "longitude_deg": 110.44955024079258,
      "height_km": 476.1226508399453,
      "semi_major_axis_km": 6853.326367603412,
      "eccentricity": 0.00012251,
      "inclination_deg": 53.158,
      "raan_deg": 120.1102,
      "arg_perigee_deg": 92.4136,
      "mean_anomaly_deg": 267.7005,
      "mean_motion_rev_day": 15.30208608
    },
    {
      "epoch": "2026-03-31T08:29:45.254400Z",
      "apogee_km": 475.90484363480755,
      "perigee_km": 474.55514153928743,
      "latitude_deg": 5.69612094829138e-05,
      "longitude_deg": 159.99479932829394,
      "height_km": 475.94609211295216,
      "semi_major_axis_km": 6853.366992587047,
      "eccentricity": 9.847e-05,
      "inclination_deg": 53.1579,
      "raan_deg": 116.1659,
      "arg_perigee_deg": 74.3386,
      "mean_anomaly_deg": 285.7724,
      "mean_motion_rev_day": 15.30195002
    },
    {
      "epoch": "2026-04-01T11:08:39.801120Z",
      "apogee_km": 476.13317825415743,
      "perigee_km": 474.3225192611153,
      "latitude_deg": -3.6657137979265125e-06,
      "longitude_deg": 114.01496323587232,
      "height_km": 475.8192246420357,
      "semi_major_axis_km": 6853.364848757636,
      "eccentricity": 0.0001321,
      "inclination_deg": 53.1578,
      "raan_deg": 111.0078,
      "arg_perigee_deg": 70.2111,
      "mean_anomaly_deg": 289.9032,
      "mean_motion_rev_day": 15.3019572
    },
    {
      "epoch": "2026-04-02T10:39:27.457056Z",
      "apogee_km": 476.05204789459003,
      "perigee_km": 474.27567231165176,
      "latitude_deg": 1.2386914608437766e-05,
      "longitude_deg": 115.79905540528961,
      "height_km": 476.00044439300666,
      "semi_major_axis_km": 6853.300860103121,
      "eccentricity": 0.0001296,
      "inclination_deg": 53.1583,
      "raan_deg": 106.4561,
      "arg_perigee_deg": 86.0436,
      "mean_anomaly_deg": 274.0713,
      "mean_motion_rev_day": 15.30217151
    },
    {
      "epoch": "2026-04-03T10:10:15.309120Z",
      "apogee_km": 475.94433292541544,
      "perigee_km": 474.51472066792576,
      "latitude_deg": 1.6184144687083206e-05,
      "longitude_deg": 117.584418391557,
      "height_km": 476.01900973474403,
      "semi_major_axis_km": 6853.36652679667,
      "eccentricity": 0.0001043,
      "inclination_deg": 53.1586,
      "raan_deg": 101.9065,
      "arg_perigee_deg": 81.248,
      "mean_anomaly_deg": 278.8639,
      "mean_motion_rev_day": 15.30195158
    },
    {
      "epoch": "2026-04-04T09:41:03.600096Z",
      "apogee_km": 475.9636278824655,
      "perigee_km": 474.3913404735058,
      "latitude_deg": -1.7849563076712414e-05,
      "longitude_deg": 119.36541860100311,
      "height_km": 475.9828751641146,
      "semi_major_axis_km": 6853.314484177985,
      "eccentricity": 0.00011471,
      "inclination_deg": 53.1593,
      "raan_deg": 97.3544,
      "arg_perigee_deg": 83.221,
      "mean_anomaly_deg": 276.8921,
      "mean_motion_rev_day": 15.30212588
    },
    {
      "epoch": "2026-04-05T06:03:45.261216Z",
      "apogee_km": 476.03215931152226,
      "perigee_km": 474.37913306526207,
      "latitude_deg": 4.659628781439163e-05,
      "longitude_deg": 168.91137305110723,
      "height_km": 475.9837746115634,
      "semi_major_axis_km": 6853.342646188392,
      "eccentricity": 0.0001206,
      "inclination_deg": 53.1599,
      "raan_deg": 93.4108,
      "arg_perigee_deg": 81.6492,
      "mean_anomaly_deg": 278.4646,
      "mean_motion_rev_day": 15.30203156
    },
    {
      "epoch": "2026-04-06T05:34:32.999232Z",
      "apogee_km": 475.7483379980131,
      "perigee_km": 474.69895141609686,
      "latitude_deg": -9.073693961765744e-06,
      "longitude_deg": 170.69566596113762,
      "height_km": 475.8357772441674,
      "semi_major_axis_km": 6853.360644707055,
      "eccentricity": 7.656e-05,
      "inclination_deg": 53.1595,
      "raan_deg": 88.8597,
      "arg_perigee_deg": 56.8748,
      "mean_anomaly_deg": 303.2326,
      "mean_motion_rev_day": 15.30197128
    },
    {
      "epoch": "2026-04-07T11:21:34.127424Z",
      "apogee_km": 476.9829214658248,
      "perigee_km": 473.36437344396745,
      "latitude_deg": -6.139699659024225e-06,
      "longitude_deg": 76.95419314725613,
      "height_km": 474.6204368075873,
      "semi_major_axis_km": 6853.310647454896,
      "eccentricity": 0.000264,
      "inclination_deg": 53.16,
      "raan_deg": 83.0961,
      "arg_perigee_deg": 36.6862,
      "mean_anomaly_deg": 323.4319,
      "mean_motion_rev_day": 15.30213873
    },
    {
      "epoch": "2026-04-08T07:44:15.574272Z",
      "apogee_km": 476.3383219391735,
      "perigee_km": 474.086448398195,
      "latitude_deg": 2.667984130820716e-05,
      "longitude_deg": 126.5012177579454,
      "height_km": 475.558338116894,
      "semi_major_axis_km": 6853.3493851686835,
      "eccentricity": 0.00016429,
      "inclination_deg": 53.1599,
      "raan_deg": 79.1527,
      "arg_perigee_deg": 60.6486,
      "mean_anomaly_deg": 299.4679,
      "mean_motion_rev_day": 15.30200899
    },
    {
      "epoch": "2026-04-09T15:05:19.541760Z",
      "apogee_km": 476.3062038165326,
      "perigee_km": 474.13231921038005,
      "latitude_deg": -1.7552486566010238e-05,
      "longitude_deg": 8.877305670164207,
      "height_km": 475.9918348908619,
      "semi_major_axis_km": 6853.356261513456,
      "eccentricity": 0.0001586,
      "inclination_deg": 53.1597,
      "raan_deg": 73.0829,
      "arg_perigee_deg": 83.3937,
      "mean_anomaly_deg": 276.7244,
      "mean_motion_rev_day": 15.30198596
    },
    {
      "epoch": "2026-04-10T08:19:54.266304Z",
      "apogee_km": 475.8849954491643,
      "perigee_km": 474.47732389916655,
      "latitude_deg": 2.0198233635535667e-05,
      "longitude_deg": 106.19130230319395,
      "height_km": 476.2536646725816,
      "semi_major_axis_km": 6853.318159674165,
      "eccentricity": 0.0001027,
      "inclination_deg": 53.1571,
      "raan_deg": 69.7497,
      "arg_perigee_deg": 104.3441,
      "mean_anomaly_deg": 255.7674,
      "mean_motion_rev_day": 15.30211357
    },
    {
      "epoch": "2026-04-11T14:06:55.232064Z",
      "apogee_km": 475.939541944932,
      "perigee_km": 474.4866317265232,
      "latitude_deg": -3.64497263407167e-06,
      "longitude_deg": 12.448389010103128,
      "height_km": 476.14279493001175,
      "semi_major_axis_km": 6853.350086835728,
      "eccentricity": 0.000106,
      "inclination_deg": 53.1573,
      "raan_deg": 63.984,
      "arg_perigee_deg": 92.496,
      "mean_anomaly_deg": 267.6162,
      "mean_motion_rev_day": 15.30200664
    },
    {
      "epoch": "2026-04-13T06:52:18.272640Z",
      "apogee_km": 476.08710682023593,
      "perigee_km": 474.33662445297614,
      "latitude_deg": -8.428642349802709e-06,
      "longitude_deg": 111.53917618495468,
      "height_km": 476.25242243775284,
      "semi_major_axis_km": 6853.348865636606,
      "eccentricity": 0.00012771,
      "inclination_deg": 53.1571,
      "raan_deg": 56.0946,
      "arg_perigee_deg": 99.3888,
      "mean_anomaly_deg": 260.7257,
      "mean_motion_rev_day": 15.30201073
    },
    {
      "epoch": "2026-04-14T20:29:35.099808Z",
      "apogee_km": 476.0413836048547,
      "perigee_km": 474.38835513396316,
      "latitude_deg": 8.433498671990769e-06,
      "longitude_deg": -101.60897631117236,
      "height_km": 476.1085375996062,
      "semi_major_axis_km": 6853.351869369409,
      "eccentricity": 0.0001206,
      "inclination_deg": 53.1585,
      "raan_deg": 48.8116,
      "arg_perigee_deg": 89.6997,
      "mean_anomaly_deg": 270.4142,
      "mean_motion_rev_day": 15.30200067
    },
    {
      "epoch": "2026-04-15T02:45:47.841120Z",
      "apogee_km": 475.45545041934474,
      "perigee_km": 474.99874223596544,
      "latitude_deg": -3.7286735567645756e-05,
      "longitude_deg": 162.86739306831612,
      "height_km": 476.03209674444645,
      "semi_major_axis_km": 6853.364096327655,
      "eccentricity": 3.332e-05,
      "inclination_deg": 53.1594,
      "raan_deg": 47.5986,
      "arg_perigee_deg": 65.6159,
      "mean_anomaly_deg": 294.4876,
      "mean_motion_rev_day": 15.30195972
    }
  ]
}